[{"index":"b","name":"北京","pinyin":"beijing","initial":"bj","lon":116.429891,"rank":1,"lat":39.9025,"poiid":""},{"index":"s","name":"上海","pinyin":"shanghai","initial":"sh","lon":121.455663,"rank":2,"lat":31.250054,"poiid":""},{"index":"h","name":"杭州","pinyin":"hangzhou","initial":"hz","lon":120.182548,"rank":3,"lat":30.24304,"poiid":""},{"index":"g","name":"广州","pinyin":"guangzhou","initial":"gz","lon":113.25986,"rank":4,"lat":23.148544,"poiid":""},{"index":"s","name":"深圳","pinyin":"shenzhen","initial":"sz","lon":114.117144,"rank":5,"lat":22.532682,"poiid":""},{"index":"n","name":"南京","pinyin":"nanjing","initial":"nj","lon":118.795324,"rank":6,"lat":32.087697,"poiid":""},{"index":"c","name":"成都","pinyin":"chengdu","initial":"cd","lon":104.075756,"rank":7,"lat":30.697417,"poiid":""},{"index":"x","name":"西安","pinyin":"xian","initial":"xa","lon":108.957713,"rank":8,"lat":34.277865,"poiid":""},{"index":"z","name":"郑州","pinyin":"zhengzhou","initial":"zz","lon":113.660236,"rank":9,"lat":34.74556,"poiid":""},{"index":"w","name":"武汉","pinyin":"wuhan","initial":"wh","lon":114.423787,"rank":10,"lat":30.609389,"poiid":""},{"index":"c","name":"长沙","pinyin":"changsha","initial":"cs","lon":113.014328,"rank":11,"lat":28.19254,"poiid":""},{"index":"s","name":"沈阳","pinyin":"shenyang","initial":"sy","lon":123.394127,"rank":12,"lat":41.794909,"poiid":""}]